{"type":"FeatureCollection","features":[
{"type":"Feature","id":"01","properties":{"name":"Alabama","density":94.65},"geometry":{"type":"Polygon","coordinates":[[[-87.359296,35.00118],[-85.606675,34.984749],[-85.431413,34.124869],[-85.184951,32.859696],[-85.069935,32.580372],[-84.960397,32.421541],[-85.004212,32.322956],[-84.889196,32.262709],[-85.058981,32.13674],[-85.053504,32.01077],[-85.141136,31.840985],[-85.042551,31.539753],[-85.113751,31.27686],[-85.004212,31.003013],[-85.497137,30.997536],[-87.600282,30.997536],[-87.633143,30.86609],[-87.408589,30.674397],[-87.446927,30.510088],[-87.37025,30.427934],[-87.518128,30.280057],[-87.655051,30.247195],[-87.90699,30.411504],[-87.934375,30.657966],[-88.011052,30.685351],[-88.10416,30.499135],[-88.137022,30.318396],[-88.394438,30.367688],[-88.471115,31.895754],[-88.241084,33.796253],[-88.098683,34.891641],[-88.202745,34.995703],[-87.359296,35.00118]]]}},
{"type":"Feature","id":"02","properties":{"name":"Alaska","density":1.264},"geometry":{"type":"Polygon","coordinates":[[[-160,71],[-141,70],[-141,60],[-158,58],[-160,55],[-166,54],[-160,58],[-160,71]]]}},
{"type":"Feature","id":"04","properties":{"name":"Arizona","density":57.05},"geometry":{"type":"Polygon","coordinates":[[[-109.042503,37.000263],[-109.04798,31.331629],[-111.074448,31.331629],[-112.246513,31.704061],[-114.815198,32.492741],[-114.72209,32.717295],[-114.524921,32.755634],[-114.470151,32.843265],[-114.524921,33.029481],[-114.661844,33.034958],[-114.727567,33.40739],[-114.524921,33.54979],[-114.497536,33.697668],[-114.535874,33.933176],[-114.415382,34.108438],[-114.256551,34.174162],[-114.136058,34.305608],[-114.333228,34.448009],[-114.470151,34.710902],[-114.634459,34.87521],[-114.634459,35.00118],[-114.574213,35.138103],[-114.596121,35.324319],[-114.678275,35.516012],[-114.738521,36.102045],[-114.371566,36.140383],[-114.251074,36.01989],[-114.152489,36.025367],[-114.048427,36.195153],[-114.048427,37.000263],[-110.499369,37.00574],[-109.042503,37.000263]]]}},
{"type":"Feature","id":"05","properties":{"name":"Arkansas","density":56.43},"geometry":{"type":"Polygon","coordinates":[[[-94.473842,36.501861],[-90.152536,36.496384],[-90.064905,36.304691],[-90.218259,36.184199],[-90.377091,35.997983],[-89.730812,35.997983],[-89.763673,35.811767],[-89.911551,35.756997],[-89.944412,35.603643],[-90.130628,35.439335],[-90.114197,35.198349],[-90.212782,35.023087],[-90.311367,34.995703],[-90.251121,34.908072],[-90.409952,34.831394],[-90.481152,34.661609],[-90.585214,34.617794],[-90.568783,34.420624],[-90.749522,34.365854],[-90.744046,34.300131],[-90.952169,34.135823],[-90.891923,34.026284],[-91.072662,33.867453],[-91.231493,33.560744],[-91.056231,33.429298],[-91.143862,33.347144],[-91.089093,33.13902],[-91.16577,33.002096],[-93.608485,33.018527],[-94.041164,33.018527],[-94.041164,33.54979],[-94.183564,33.593606],[-94.380734,33.544313],[-94.484796,33.637421],[-94.430026,35.395519],[-94.616242,36.501861],[-94.473842,36.501861]]]}},
{"type":"Feature","id":"06","properties":{"name":"California","density":241.7},"geometry":{"type":"Polygon","coordinates":[[[-123.233256,42.006186],[-122.378853,42.011663],[-121.037003,41.995232],[-120.001861,41.995232],[-119.996384,40.264519],[-120.001861,38.999346],[-118.71478,38.101128],[-117.498899,37.21934],[-116.540435,36.501861],[-115.85034,35.970598],[-114.634459,35.00118],[-114.634459,34.87521],[-114.470151,34.710902],[-114.333228,34.448009],[-114.136058,34.305608],[-114.256551,34.174162],[-114.415382,34.108438],[-114.535874,33.933176],[-114.497536,33.697668],[-114.524921,33.54979],[-114.727567,33.40739],[-114.661844,33.034958],[-114.524921,33.029481],[-114.470151,32.843265],[-114.524921,32.755634],[-114.72209,32.717295],[-116.04751,32.624187],[-117.126467,32.536556],[-117.24696,32.668003],[-117.252437,32.876127],[-117.329114,33.122589],[-117.471515,33.297851],[-117.7837,33.538836],[-118.183517,33.763391],[-118.260194,33.703145],[-118.413548,33.741483],[-118.391641,33.840068],[-118.566903,34.042715],[-118.802411,33.998899],[-119.218659,34.146777],[-119.278905,34.26727],[-119.558229,34.415147],[-119.875891,34.40967],[-120.138784,34.475393],[-120.472878,34.448009],[-120.64814,34.579455],[-120.609801,34.858779],[-120.670048,34.902595],[-120.631709,35.099764],[-120.894602,35.247642],[-120.905556,35.450289],[-121.004141,35.461243],[-121.168449,35.636505],[-121.283465,35.674843],[-121.332757,35.784382],[-121.716143,36.195153],[-121.896882,36.315645],[-121.935221,36.638785],[-121.858544,36.6114],[-121.787344,36.803093],[-121.929744,36.978355],[-122.105006,36.956447],[-122.335038,37.115279],[-122.417192,37.241248],[-122.400761,37.361741],[-122.515777,37.520572],[-122.515777,37.783465],[-122.329561,37.783465],[-122.406238,38.15042],[-122.488392,38.112082],[-122.504823,37.931343],[-122.701993,37.893004],[-122.937501,38.029928],[-122.97584,38.265436],[-123.129194,38.451652],[-123.331841,38.566668],[-123.44138,38.698114],[-123.737134,38.95553],[-123.687842,39.032208],[-123.824765,39.366301],[-123.764519,39.552517],[-123.85215,39.831841],[-124.109566,40.105688],[-124.361506,40.259042],[-124.410798,40.439781],[-124.158859,40.877937],[-124.109566,41.025814],[-124.158859,41.14083],[-124.065751,41.442061],[-124.147905,41.715908],[-124.257444,41.781632],[-124.213628,42.000709],[-123.233256,42.006186]]]}},
{"type":"Feature","id":"08","properties":{"name":"Colorado","density":49.33},"geometry":{"type":"Polygon","coordinates":[[[-107.919731,41.003906],[-105.728954,40.998429],[-104.053011,41.003906],[-102.053927,41.003906],[-102.053927,40.001626],[-102.042974,36.994786],[-103.001438,37.000263],[-104.337812,36.994786],[-106.868158,36.994786],[-107.421329,37.000263],[-109.042503,37.000263],[-109.042503,38.166851],[-109.058934,38.27639],[-109.053457,39.125316],[-109.04798,40.998429],[-107.919731,41.003906]]]}},
{"type":"Feature","id":"09","properties":{"name":"Connecticut","density":739.1},"geometry":{"type":"Polygon","coordinates":[[[-73.053528,42.039048],[-71.799309,42.022617],[-71.799309,42.006186],[-71.799309,41.414677],[-71.859555,41.321569],[-71.947186,41.338],[-72.385341,41.261322],[-72.905651,41.28323],[-73.130205,41.146307],[-73.371191,41.102491],[-73.655992,40.987475],[-73.727192,41.102491],[-73.48073,41.21203],[-73.55193,41.294184],[-73.486206,42.050002],[-73.053528,42.039048]]]}},
{"type":"Feature","id":"10","properties":{"name":"Delaware","density":464.3},"geometry":{"type":"Polygon","coordinates":[[[-75.414089,39.804456],[-75.507197,39.683964],[-75.611259,39.61824],[-75.589352,39.459409],[-75.441474,39.311532],[-75.403136,39.065069],[-75.189535,38.807653],[-75.09095,38.796699],[-75.047134,38.451652],[-75.693413,38.462606],[-75.786521,39.722302],[-75.616736,39.831841],[-75.414089,39.804456]]]}},
{"type":"Feature","id":"11","properties":{"name":"District of Columbia","density":10065},"geometry":{"type":"Polygon","coordinates":[[[-77.035264,38.993869],[-76.909294,38.895284],[-77.040741,38.791222],[-77.117418,38.933623],[-77.035264,38.993869]]]}},
{"type":"Feature","id":"12","properties":{"name":"Florida","density":353.4},"geometry":{"type":"Polygon","coordinates":[[[-85.497137,30.997536],[-85.004212,31.003013],[-84.867289,30.712735],[-83.498053,30.647012],[-82.216449,30.570335],[-82.167157,30.356734],[-82.046664,30.362211],[-82.002849,30.564858],[-82.041187,30.751074],[-81.948079,30.827751],[-81.718048,30.745597],[-81.444201,30.707258],[-81.383954,30.27458],[-81.257985,29.787132],[-80.967707,29.14633],[-80.524075,28.461713],[-80.589798,28.41242],[-80.56789,28.094758],[-80.381674,27.738757],[-80.091397,27.021277],[-80.03115,26.796723],[-80.036627,26.566691],[-80.146166,25.739673],[-80.239274,25.723243],[-80.337859,25.465826],[-80.304997,25.383672],[-80.49669,25.197456],[-80.573367,25.241272],[-80.759583,25.164595],[-81.077246,25.120779],[-81.170354,25.224841],[-81.126538,25.378195],[-81.351093,25.821827],[-81.526355,25.903982],[-81.679709,25.843735],[-81.800202,26.090198],[-81.833064,26.292844],[-82.041187,26.517399],[-82.09048,26.665276],[-82.057618,26.878877],[-82.172634,26.917216],[-82.145249,26.791246],[-82.249311,26.758384],[-82.566974,27.300601],[-82.692943,27.437525],[-82.391711,27.837342],[-82.588881,27.815434],[-82.720328,27.689464],[-82.851774,27.886634],[-82.676512,28.434328],[-82.643651,28.888914],[-82.764143,28.998453],[-82.802482,29.14633],[-82.994175,29.179192],[-83.218729,29.420177],[-83.399469,29.518762],[-83.410422,29.66664],[-83.536392,29.721409],[-83.640454,29.885717],[-84.02384,30.104795],[-84.357933,30.055502],[-84.341502,29.902148],[-84.451041,29.929533],[-84.867289,29.743317],[-85.310921,29.699501],[-85.299967,29.80904],[-85.404029,29.940487],[-85.924338,30.236241],[-86.29677,30.362211],[-86.630863,30.395073],[-86.910187,30.373165],[-87.518128,30.280057],[-87.37025,30.427934],[-87.446927,30.510088],[-87.408589,30.674397],[-87.633143,30.86609],[-87.600282,30.997536],[-85.497137,30.997536]]]}},
{"type":"Feature","id":"13","properties":{"name":"Georgia","density":169.5},"geometry":{"type":"Polygon","coordinates":[[[-83.109191,35.00118],[-83.322791,34.787579],[-83.339222,34.683517],[-83.005129,34.469916],[-82.901067,34.486347],[-82.747713,34.26727],[-82.714851,34.152254],[-82.55602,33.94413],[-82.325988,33.81816],[-82.194542,33.631944],[-81.926172,33.462159],[-81.937125,33.347144],[-81.761863,33.160928],[-81.493493,33.007573],[-81.42777,32.843265],[-81.416816,32.629664],[-81.279893,32.558464],[-81.121061,32.290094],[-81.115584,32.120309],[-80.885553,32.032678],[-81.132015,31.693108],[-81.175831,31.517845],[-81.279893,31.364491],[-81.290846,31.20566],[-81.400385,31.13446],[-81.444201,30.707258],[-81.718048,30.745597],[-81.948079,30.827751],[-82.041187,30.751074],[-82.002849,30.564858],[-82.046664,30.362211],[-82.167157,30.356734],[-82.216449,30.570335],[-83.498053,30.647012],[-84.867289,30.712735],[-85.004212,31.003013],[-85.113751,31.27686],[-85.042551,31.539753],[-85.141136,31.840985],[-85.053504,32.01077],[-85.058981,32.13674],[-84.889196,32.262709],[-85.004212,32.322956],[-84.960397,32.421541],[-85.069935,32.580372],[-85.184951,32.859696],[-85.431413,34.124869],[-85.606675,34.984749],[-84.319594,34.990226],[-83.618546,34.984749],[-83.109191,35.00118]]]}},
{"type":"Feature","id":"16","properties":{"name":"Idaho","density":19.15},"geometry":{"type":"Polygon","coordinates":[[[-116.04751,49.000239],[-116.04751,47.976051],[-115.724371,47.696727],[-115.718894,47.42288],[-115.527201,47.302388],[-115.324554,47.258572],[-115.302646,47.187372],[-114.930214,46.919002],[-114.886399,46.809463],[-114.623506,46.705401],[-114.612552,46.639678],[-114.322274,46.645155],[-114.464674,46.272723],[-114.492059,46.037214],[-114.387997,45.88386],[-114.568736,45.774321],[-114.497536,45.670259],[-114.546828,45.560721],[-114.333228,45.456659],[-113.571933,45.128042],[-113.002331,44.448902],[-112.471068,44.481763],[-111.868605,44.563917],[-111.047063,44.476286],[-111.047063,42.000709],[-114.04295,41.995232],[-117.027882,42.000709],[-117.027882,43.830007],[-116.896436,44.158624],[-116.545912,45.61549],[-116.463758,45.61549],[-116.732128,45.144473],[-117.033359,49.000239],[-116.04751,49.000239]]]}},
{"type":"Feature","id":"17","properties":{"name":"Illinois","density":231.5},"geometry":{"type":"Polygon","coordinates":[[[-90.639984,42.510065],[-88.788778,42.493634],[-87.802929,42.493634],[-87.83579,42.301941],[-87.523605,41.710431],[-87.529082,39.34987],[-87.63862,39.169131],[-87.49622,38.780268],[-87.655051,38.506421],[-87.923421,38.15042],[-88.060345,37.865619],[-88.15893,37.657496],[-88.065822,37.482234],[-88.476592,37.389126],[-88.421823,37.153617],[-88.914747,37.224817],[-89.183118,37.038601],[-89.292656,36.994786],[-89.517211,37.279587],[-89.517211,37.690357],[-89.84035,37.903958],[-90.059428,38.013497],[-90.355183,38.216144],[-90.207305,38.725499],[-90.251121,38.917192],[-90.585214,38.867899],[-90.727615,39.256762],[-91.368417,39.727779],[-91.50534,40.237135],[-91.121954,40.669813],[-90.946692,41.097014],[-91.045277,41.414677],[-90.311367,41.743293],[-90.141582,42.000709],[-90.393521,42.225264],[-90.639984,42.510065]]]}},
{"type":"Feature","id":"18","properties":{"name":"Indiana","density":181.7},"geometry":{"type":"Polygon","coordinates":[[[-85.990061,41.759724],[-84.807042,41.759724],[-84.807042,41.694001],[-84.801565,40.500028],[-84.817996,39.103408],[-84.894673,39.059592],[-84.812519,38.785745],[-85.173997,38.68716],[-85.431413,38.730976],[-85.590245,38.451652],[-85.924338,38.024451],[-86.263908,38.051835],[-86.521325,38.040881],[-86.729448,37.893004],[-87.047111,37.893004],[-87.381204,37.93682],[-87.600282,37.975158],[-87.934375,37.893004],[-88.027483,37.799896],[-88.060345,37.865619],[-87.923421,38.15042],[-87.655051,38.506421],[-87.49622,38.780268],[-87.63862,39.169131],[-87.529082,39.34987],[-87.523605,41.710431],[-87.118311,41.644708],[-86.822556,41.759724],[-85.990061,41.759724]]]}},
{"type":"Feature","id":"19","properties":{"name":"Iowa","density":54.81},"geometry":{"type":"Polygon","coordinates":[[[-91.368417,43.501391],[-91.215062,43.501391],[-91.056231,43.254929],[-90.639984,42.510065],[-90.311367,41.743293],[-90.946692,41.097014],[-91.401278,40.560274],[-91.833957,40.609566],[-93.257961,40.582182],[-95.7664,40.587659],[-95.826646,40.976521],[-95.919754,41.453015],[-96.122401,41.67757],[-96.264801,42.039048],[-96.631756,42.707235],[-96.560556,43.222067],[-96.582464,43.479483],[-96.451017,43.501391],[-91.368417,43.501391]]]}},
{"type":"Feature","id":"20","properties":{"name":"Kansas","density":35.09},"geometry":{"type":"Polygon","coordinates":[[[-101.90605,40.001626],[-95.306337,40.001626],[-95.207752,39.908518],[-94.610765,39.158177],[-94.616242,37.000263],[-100.087706,37.000263],[-102.042974,36.994786],[-102.053927,40.001626],[-101.90605,40.001626]]]}},
{"type":"Feature","id":"21","properties":{"name":"Kentucky","density":110},"geometry":{"type":"Polygon","coordinates":[[[-83.903347,38.769315],[-83.678792,38.632391],[-83.519961,38.703591],[-83.142052,38.626914],[-82.890113,38.758361],[-82.594358,38.424267],[-82.50125,37.931343],[-82.101434,37.553434],[-81.969987,37.537003],[-82.353373,37.268633],[-82.720328,37.120755],[-82.868205,36.978355],[-83.070852,36.852385],[-83.673316,36.600446],[-84.544149,36.594969],[-85.486183,36.616877],[-86.592525,36.655216],[-87.852221,36.633308],[-88.054868,36.496384],[-89.298133,36.507338],[-89.363857,36.622354],[-89.133825,36.983832],[-89.029763,37.213863],[-88.547792,37.071463],[-88.421823,37.153617],[-88.065822,37.482234],[-88.027483,37.799896],[-87.600282,37.975158],[-87.381204,37.93682],[-87.047111,37.893004],[-86.729448,37.893004],[-86.521325,38.040881],[-86.263908,38.051835],[-85.924338,38.024451],[-85.590245,38.451652],[-85.431413,38.730976],[-85.173997,38.68716],[-84.812519,38.785745],[-84.894673,39.059592],[-84.817996,39.103408],[-84.43461,39.103408],[-84.231963,38.895284],[-83.903347,38.769315]]]}},
{"type":"Feature","id":"22","properties":{"name":"Louisiana","density":105},"geometry":{"type":"Polygon","coordinates":[[[-93.608485,33.018527],[-91.16577,33.002096],[-91.072662,32.887081],[-91.154816,32.640618],[-91.105524,31.988862],[-91.401278,31.621907],[-91.516294,31.27686],[-91.636787,30.997536],[-89.747242,30.997536],[-89.845827,30.66892],[-89.522688,30.181472],[-89.84035,29.945964],[-89.495303,30.039072],[-89.199548,29.348977],[-89.336472,29.042268],[-89.851304,29.480424],[-90.333275,29.277777],[-90.798815,29.086084],[-91.09457,29.190146],[-91.445094,29.546147],[-91.883249,29.710455],[-92.146142,29.715932],[-92.617159,29.579009],[-93.2251,29.776178],[-93.767317,29.726886],[-93.926148,29.787132],[-93.690639,30.143133],[-93.728978,30.575812],[-93.526331,30.93729],[-93.542762,31.15089],[-93.816609,31.556184],[-94.041164,31.994339],[-94.041164,33.018527],[-93.608485,33.018527]]]}},
{"type":"Feature","id":"23","properties":{"name":"Maine","density":43.04},"geometry":{"type":"Polygon","coordinates":[[[-70.703921,43.057759],[-70.824413,43.128959],[-70.966814,43.34256],[-71.032537,44.657025],[-71.08183,45.303304],[-70.649151,45.440228],[-70.386258,45.735983],[-70.260289,45.889337],[-70.057642,46.415123],[-69.225147,47.461219],[-69.044408,47.428357],[-68.902007,47.176418],[-68.376221,47.285957],[-67.954497,47.198326],[-67.790188,47.066879],[-67.779235,45.944106],[-67.456095,45.604536],[-67.417757,45.379982],[-67.346556,45.128042],[-66.979601,44.804903],[-67.187725,44.646072],[-67.406803,44.596779],[-67.549203,44.624164],[-67.75185,44.54201],[-68.047605,44.328409],[-68.222867,44.48724],[-68.403606,44.251732],[-68.567914,44.311978],[-68.830807,44.459856],[-68.984161,44.426994],[-69.071793,44.043608],[-69.258008,43.923115],[-69.444224,43.966931],[-69.707118,43.82453],[-69.986442,43.742376],[-70.254812,43.676653],[-70.358873,43.528776],[-70.556043,43.320652],[-70.703921,43.057759]]]}},
{"type":"Feature","id":"24","properties":{"name":"Maryland","density":596.3},"geometry":{"type":"Polygon","coordinates":[[[-79.477979,39.722302],[-75.786521,39.722302],[-75.693413,38.462606],[-75.047134,38.451652],[-75.397659,38.013497],[-75.885106,37.909435],[-76.000122,38.374975],[-76.257538,38.320205],[-76.328738,38.500944],[-76.257538,38.736453],[-76.279446,39.147223],[-76.000122,39.366301],[-76.104184,39.437501],[-76.443754,39.196516],[-76.55877,38.769315],[-76.399939,38.259959],[-76.591632,38.216144],[-77.018833,38.446175],[-77.276249,38.479037],[-77.040741,38.791222],[-77.035264,38.993869],[-77.248864,39.026731],[-77.456988,39.223901],[-77.719881,39.322485],[-77.834897,39.601809],[-78.174467,39.694917],[-78.431884,39.623717],[-78.765977,39.585379],[-79.094593,39.470363],[-79.488933,39.20747],[-79.477979,39.722302]]]}},
{"type":"Feature","id":"25","properties":{"name":"Massachusetts","density":840.2},"geometry":{"type":"Polygon","coordinates":[[[-70.917521,42.887974],[-70.818936,42.871543],[-70.780598,42.696281],[-70.824413,42.55388],[-70.983245,42.422434],[-70.769644,42.247172],[-70.660105,41.546123],[-70.928475,41.611847],[-71.120168,41.496831],[-71.328292,41.781632],[-71.383061,42.01714],[-71.799309,42.006186],[-73.053528,42.039048],[-73.508114,42.08834],[-73.267129,42.745573],[-72.456542,42.729142],[-71.29543,42.696281],[-71.185891,42.789389],[-70.917521,42.887974]]]}},
{"type":"Feature","id":"26","properties":{"name":"Michigan","density":173.9},"geometry":{"type":"Polygon","coordinates":[[[-83.454238,41.732339],[-84.807042,41.694001],[-85.990061,41.759724],[-86.822556,41.759724],[-86.619909,41.891171],[-86.263908,42.444341],[-86.231047,43.013943],[-86.499417,44.07647],[-86.220093,44.569394],[-85.809322,44.947303],[-85.612152,45.128042],[-85.305444,45.314258],[-85.031597,45.363551],[-84.938489,45.75789],[-84.461995,45.653829],[-84.09504,45.494997],[-83.596638,45.352597],[-83.322791,44.88158],[-83.333745,44.339363],[-83.667839,43.589022],[-82.917498,44.070993],[-82.413619,42.975605],[-82.517681,42.614127],[-82.797005,42.652465],[-83.125621,42.236218],[-83.437807,41.814493],[-83.454238,41.732339]]]}},
{"type":"Feature","id":"27","properties":{"name":"Minnesota","density":67.14},"geometry":{"type":"Polygon","coordinates":[[[-92.014696,46.705401],[-92.29402,46.667063],[-92.639067,45.933153],[-92.808852,44.750133],[-92.233773,44.443425],[-91.592971,44.032654],[-91.215062,43.501391],[-91.368417,43.501391],[-96.451017,43.501391],[-96.451017,45.297827],[-96.856311,45.604536],[-96.560556,45.933153],[-96.719387,46.437031],[-96.856311,47.609096],[-97.16302,48.545653],[-97.228743,49.000239],[-95.152983,49.000239],[-95.152983,49.383625],[-94.824366,49.295994],[-94.588858,48.715438],[-93.838517,48.627807],[-93.466085,48.589469],[-92.984114,48.62233],[-92.370697,48.222514],[-91.713464,48.112975],[-91.083616,48.178698],[-90.377091,48.091067],[-89.873212,47.987005],[-90.437337,47.729589],[-91.171247,47.368111],[-91.642264,47.028541],[-92.091373,46.787555],[-92.014696,46.705401]]]}},
{"type":"Feature","id":"28","properties":{"name":"Mississippi","density":63.50},"geometry":{"type":"Polygon","coordinates":[[[-88.471115,34.995703],[-88.202745,34.995703],[-88.098683,34.891641],[-88.241084,33.796253],[-88.471115,31.895754],[-88.394438,30.367688],[-88.744962,30.34578],[-89.084533,30.367688],[-89.522688,30.181472],[-89.845827,30.66892],[-89.747242,30.997536],[-91.636787,30.997536],[-91.516294,31.27686],[-91.401278,31.621907],[-91.105524,31.988862],[-91.154816,32.640618],[-91.072662,32.887081],[-91.16577,33.002096],[-91.231493,33.560744],[-90.891923,34.026284],[-90.749522,34.365854],[-90.585214,34.617794],[-90.251121,34.908072],[-90.311367,34.995703],[-88.471115,34.995703]]]}},
{"type":"Feature","id":"29","properties":{"name":"Missouri","density":87.26},"geometry":{"type":"Polygon","coordinates":[[[-91.833957,40.609566],[-91.401278,40.379535],[-91.368417,39.727779],[-90.727615,39.256762],[-90.251121,38.917192],[-90.207305,38.725499],[-90.355183,38.216144],[-90.059428,38.013497],[-89.517211,37.690357],[-89.517211,37.279587],[-89.292656,36.994786],[-89.133825,36.983832],[-89.363857,36.622354],[-89.484349,36.496384],[-89.730812,35.997983],[-90.377091,35.997983],[-90.152536,36.496384],[-94.473842,36.501861],[-94.616242,37.000263],[-94.610765,39.158177],[-95.207752,39.908518],[-95.552799,40.264519],[-95.7664,40.587659],[-93.257961,40.582182],[-91.833957,40.609566]]]}},
{"type":"Feature","id":"30","properties":{"name":"Montana","density":6.858},"geometry":{"type":"Polygon","coordinates":[[[-104.047534,49.000239],[-104.042057,44.996596],[-111.05254,45.002073],[-111.047063,44.476286],[-111.868605,44.563917],[-113.002331,44.448902],[-113.571933,45.128042],[-114.333228,45.456659],[-114.497536,45.670259],[-114.322274,46.645155],[-114.886399,46.809463],[-115.324554,47.258572],[-115.724371,47.696727],[-116.04751,49.000239],[-111.50165,48.994762],[-109.453274,49.000239],[-104.047534,49.000239]]]}},
{"type":"Feature","id":"31","properties":{"name":"Nebraska","density":23.97},"geometry":{"type":"Polygon","coordinates":[[[-103.324578,43.002989],[-98.499393,42.997512],[-97.951699,42.767481],[-97.217789,42.844158],[-96.692003,42.657942],[-96.264801,42.039048],[-96.122401,41.67757],[-95.919754,41.453015],[-95.826646,40.976521],[-95.552799,40.264519],[-95.306337,40.001626],[-101.90605,40.001626],[-102.053927,41.003906],[-104.053011,41.003906],[-104.053011,43.002989],[-103.324578,43.002989]]]}},
{"type":"Feature","id":"32","properties":{"name":"Nevada","density":24.80},"geometry":{"type":"Polygon","coordinates":[[[-117.027882,42.000709],[-114.04295,41.995232],[-114.048427,37.000263],[-114.048427,36.195153],[-114.371566,36.140383],[-114.738521,36.102045],[-114.634459,35.00118],[-115.85034,35.970598],[-116.540435,36.501861],[-117.498899,37.21934],[-118.71478,38.101128],[-120.001861,38.999346],[-119.996384,40.264519],[-120.001861,41.995232],[-118.698349,41.989755],[-117.027882,42.000709]]]}},
{"type":"Feature","id":"33","properties":{"name":"New Hampshire","density":147},"geometry":{"type":"Polygon","coordinates":[[[-71.08183,45.303304],[-71.032537,44.657025],[-70.966814,43.34256],[-70.824413,43.128959],[-70.703921,43.057759],[-70.917521,42.887974],[-71.185891,42.789389],[-71.29543,42.696281],[-72.456542,42.729142],[-72.544173,42.80582],[-72.379864,43.572591],[-72.116971,43.994316],[-72.034817,44.322932],[-71.700724,44.41604],[-71.629524,44.750133],[-71.503554,45.013027],[-71.361154,45.270443],[-71.131122,45.243058],[-71.08183,45.303304]]]}},
{"type":"Feature","id":"34","properties":{"name":"New Jersey","density":1189 },"geometry":{"type":"Polygon","coordinates":[[[-74.236547,41.14083],[-73.902454,40.998429],[-74.022947,40.708151],[-74.274886,40.489074],[-74.001039,40.412397],[-73.979131,40.297381],[-74.099624,39.760641],[-74.411809,39.360824],[-74.795195,38.993869],[-75.178581,39.240331],[-75.534582,39.459409],[-75.507197,39.683964],[-75.145719,39.88661],[-74.82258,40.127596],[-75.058088,40.417874],[-75.205966,40.691721],[-75.052611,40.866983],[-74.882826,41.179168],[-74.69661,41.359907],[-74.236547,41.14083]]]}},
{"type":"Feature","id":"35","properties":{"name":"New Mexico","density":17.16},"geometry":{"type":"Polygon","coordinates":[[[-107.421329,37.000263],[-103.001438,37.000263],[-103.045254,34.01533],[-103.067161,31.999816],[-106.616219,31.999816],[-106.528588,31.786216],[-108.210008,31.786216],[-108.210008,31.331629],[-109.04798,31.331629],[-109.042503,37.000263],[-107.421329,37.000263]]]}},
{"type":"Feature","id":"36","properties":{"name":"New York","density":412.3},"geometry":{"type":"Polygon","coordinates":[[[-73.343806,45.013027],[-73.332852,44.804903],[-73.436914,44.043608],[-73.267129,42.745573],[-73.508114,42.08834],[-73.55193,41.294184],[-73.727192,41.102491],[-73.22879,40.905321],[-72.774204,40.965568],[-72.100541,40.992952],[-73.239744,40.625997],[-73.935316,40.543843],[-74.022947,40.708151],[-73.902454,40.998429],[-74.236547,41.14083],[-74.740426,41.431108],[-75.074519,41.60637],[-75.173104,41.869263],[-75.35932,42.000709],[-79.76278,42.000709],[-79.76278,42.269079],[-79.149363,42.55388],[-78.930285,42.953697],[-79.072686,43.260406],[-78.486653,43.375421],[-77.966344,43.369944],[-76.958587,43.271359],[-76.230154,43.802623],[-75.912491,44.366748],[-75.282643,44.848718],[-74.148916,44.991119],[-73.343806,45.013027]]]}},
{"type":"Feature","id":"37","properties":{"name":"North Carolina","density":198.2},"geometry":{"type":"Polygon","coordinates":[[[-80.978661,36.562108],[-79.510841,36.5402],[-75.868676,36.551154],[-75.75366,36.151337],[-76.147999,35.324319],[-76.394462,34.973795],[-76.673786,34.694471],[-77.210526,34.60684],[-77.82942,34.163208],[-78.541422,33.851022],[-79.675149,34.80401],[-80.797922,34.820441],[-81.044384,35.149057],[-82.276696,35.198349],[-82.764143,35.066903],[-83.109191,35.00118],[-83.618546,34.984749],[-84.09504,35.247642],[-83.7719,35.559827],[-82.994175,35.773428],[-82.638174,36.063706],[-82.216449,36.156814],[-81.909741,36.304691],[-81.679709,36.589492],[-80.978661,36.562108]]]}},
{"type":"Feature","id":"38","properties":{"name":"North Dakota","density":9.916},"geometry":{"type":"Polygon","coordinates":[[[-97.228743,49.000239],[-97.16302,48.545653],[-96.856311,47.609096],[-96.719387,46.437031],[-96.560556,45.933153],[-104.047534,45.944106],[-104.047534,49.000239],[-97.228743,49.000239]]]}},
{"type":"Feature","id":"39","properties":{"name":"Ohio","density":281.9},"geometry":{"type":"Polygon","coordinates":[[[-80.518598,41.978802],[-80.518598,40.636951],[-80.830783,39.711348],[-81.345616,39.344393],[-81.811156,39.0815],[-82.221926,38.785745],[-82.594358,38.424267],[-82.890113,38.758361],[-83.519961,38.703591],[-83.903347,38.769315],[-84.43461,39.103408],[-84.817996,39.103408],[-84.801565,40.500028],[-84.807042,41.694001],[-83.454238,41.732339],[-82.835344,41.589939],[-82.013803,41.513262],[-81.444201,41.672093],[-80.518598,41.978802]]]}},
{"type":"Feature","id":"40","properties":{"name":"Oklahoma","density":55.22},"geometry":{"type":"Polygon","coordinates":[[[-100.087706,37.000263],[-94.616242,37.000263],[-94.616242,36.501861],[-94.430026,35.395519],[-94.484796,33.637421],[-95.224183,33.960561],[-95.602092,33.933176],[-96.149786,33.840068],[-96.631756,33.845545],[-96.922034,33.960561],[-97.371143,33.823637],[-97.869545,33.851022],[-98.36247,34.157731],[-98.767763,34.135823],[-99.189488,34.2125],[-99.698843,34.382285],[-100.000075,34.563024],[-100.000075,36.501861],[-103.001438,36.501861],[-103.001438,37.000263],[-100.087706,37.000263]]]}},
{"type":"Feature","id":"41","properties":{"name":"Oregon","density":40.33},"geometry":{"type":"Polygon","coordinates":[[[-123.211348,46.174138],[-122.811531,45.960537],[-122.247407,45.549767],[-121.535404,45.725029],[-120.637186,45.746937],[-119.963522,45.823614],[-118.988627,45.998876],[-116.918344,45.993399],[-116.732128,45.144473],[-117.038836,44.750133],[-117.241483,44.394132],[-117.027882,43.830007],[-117.027882,42.000709],[-120.001861,41.995232],[-122.378853,42.011663],[-123.233256,42.006186],[-124.213628,42.000709],[-124.416275,42.663419],[-124.235536,43.271359],[-124.060274,44.657025],[-123.97812,45.144473],[-123.994551,45.944106],[-123.545441,46.261769],[-123.211348,46.174138]]]}},
{"type":"Feature","id":"42","properties":{"name":"Pennsylvania","density":284.3},"geometry":{"type":"Polygon","coordinates":[[[-79.76278,42.252649],[-79.76278,42.000709],[-75.35932,42.000709],[-75.173104,41.869263],[-75.074519,41.60637],[-74.740426,41.431108],[-74.69661,41.359907],[-75.134765,40.971045],[-75.058088,40.417874],[-75.414089,39.804456],[-75.786521,39.722302],[-79.477979,39.722302],[-80.518598,39.722302],[-80.518598,41.978802],[-80.332382,42.033571],[-79.76278,42.269079],[-79.76278,42.252649]]]}},
{"type":"Feature","id":"44","properties":{"name":"Rhode Island","density":1006 },"geometry":{"type":"Polygon","coordinates":[[[-71.530939,42.01714],[-71.383061,42.01714],[-71.328292,41.781632],[-71.481646,41.370861],[-71.859555,41.321569],[-71.799309,41.414677],[-71.799309,42.006186],[-71.530939,42.01714]]]}},
{"type":"Feature","id":"45","properties":{"name":"South Carolina","density":155.4},"geometry":{"type":"Polygon","coordinates":[[[-82.764143,35.066903],[-81.044384,35.149057],[-80.797922,34.820441],[-79.675149,34.80401],[-78.541422,33.851022],[-78.935762,33.637421],[-79.357487,33.007573],[-79.866842,32.755634],[-80.206412,32.552987],[-80.660998,32.246279],[-80.885553,32.032678],[-81.279893,32.558464],[-81.493493,33.007573],[-81.937125,33.347144],[-82.325988,33.81816],[-82.714851,34.152254],[-83.005129,34.469916],[-83.109191,35.00118],[-82.764143,35.066903]]]}},
{"type":"Feature","id":"46","properties":{"name":"South Dakota","density":98.07},"geometry":{"type":"Polygon","coordinates":[[[-104.047534,45.944106],[-96.560556,45.933153],[-96.451017,45.297827],[-96.451017,43.501391],[-96.631756,42.707235],[-97.217789,42.844158],[-97.951699,42.767481],[-98.499393,42.997512],[-103.324578,43.002989],[-104.053011,43.002989],[-104.047534,45.944106]]]}},
{"type":"Feature","id":"47","properties":{"name":"Tennessee","density":88.08},"geometry":{"type":"Polygon","coordinates":[[[-88.054868,36.496384],[-87.852221,36.633308],[-86.592525,36.655216],[-85.486183,36.616877],[-84.544149,36.594969],[-83.673316,36.600446],[-81.679709,36.589492],[-81.909741,36.304691],[-82.216449,36.156814],[-82.638174,36.063706],[-82.994175,35.773428],[-83.7719,35.559827],[-84.09504,35.247642],[-84.319594,34.990226],[-85.606675,34.984749],[-87.359296,35.00118],[-88.202745,34.995703],[-88.471115,34.995703],[-90.311367,34.995703],[-90.130628,35.439335],[-89.911551,35.756997],[-89.730812,35.997983],[-89.484349,36.496384],[-89.298133,36.507338],[-88.054868,36.496384]]]}},
{"type":"Feature","id":"48","properties":{"name":"Texas","density":98.07},"geometry":{"type":"Polygon","coordinates":[[[-101.812942,36.501861],[-100.000075,36.501861],[-100.000075,34.563024],[-99.698843,34.382285],[-99.189488,34.2125],[-98.767763,34.135823],[-98.36247,34.157731],[-97.869545,33.851022],[-97.371143,33.823637],[-96.922034,33.960561],[-96.631756,33.845545],[-96.149786,33.840068],[-95.602092,33.933176],[-95.224183,33.960561],[-94.484796,33.637421],[-94.380734,33.544313],[-94.041164,33.018527],[-94.041164,31.994339],[-93.816609,31.556184],[-93.542762,31.15089],[-93.728978,30.575812],[-93.926148,29.787132],[-94.523134,29.546147],[-94.966767,29.699501],[-95.383014,28.867006],[-96.045724,28.647929],[-96.593418,28.724606],[-96.774157,28.406943],[-97.256128,27.694941],[-97.513544,27.360848],[-97.480682,26.99937],[-97.30542,26.161398],[-97.524498,25.887551],[-97.885976,26.06829],[-98.466531,26.221644],[-98.822533,26.369522],[-99.173057,26.539307],[-99.446904,27.021277],[-99.50715,27.33894],[-99.605735,27.640172],[-99.879582,27.799003],[-100.082229,28.14405],[-100.399891,28.582205],[-100.673738,29.102515],[-101.013309,29.370885],[-101.413125,29.754271],[-102.114174,29.792609],[-102.629006,29.732363],[-102.919284,29.190146],[-103.280762,28.982022],[-104.146119,29.381839],[-104.507597,29.639255],[-104.858121,30.389596],[-105.394861,30.855136],[-105.953509,31.364491],[-106.528588,31.786216],[-106.616219,31.999816],[-103.067161,31.999816],[-103.045254,34.01533],[-103.001438,36.501861],[-101.812942,36.501861]]]}},
{"type":"Feature","id":"49","properties":{"name":"Utah","density":34.30},"geometry":{"type":"Polygon","coordinates":[[[-112.164359,41.995232],[-111.047063,42.000709],[-111.047063,40.998429],[-109.04798,40.998429],[-109.058934,38.27639],[-109.042503,37.000263],[-114.048427,37.000263],[-114.04295,41.995232],[-112.164359,41.995232]]]}},
{"type":"Feature","id":"50","properties":{"name":"Vermont","density":67.73},"geometry":{"type":"Polygon","coordinates":[[[-71.503554,45.013027],[-71.629524,44.750133],[-72.034817,44.322932],[-72.204602,43.769761],[-72.456542,43.150867],[-72.456542,42.729142],[-73.267129,42.745573],[-73.436914,44.043608],[-73.332852,44.804903],[-73.343806,45.013027],[-72.308664,45.002073],[-71.503554,45.013027]]]}},
{"type":"Feature","id":"51","properties":{"name":"Virginia","density":204.5},"geometry":{"type":"Polygon","coordinates":[[[-75.397659,38.013497],[-75.244304,38.029928],[-75.512674,37.799896],[-75.802952,37.197433],[-75.972737,37.120755],[-75.939876,37.564388],[-75.671506,37.95325],[-75.397659,38.013497]],[[-78.349729,39.464886],[-77.82942,39.130793],[-77.456988,39.076023],[-77.040741,38.791222],[-77.276249,38.479037],[-76.964064,38.216144],[-76.514954,38.024451],[-76.3616,37.608203],[-76.399939,37.159094],[-76.619016,37.120755],[-76.48757,36.95097],[-75.868676,36.551154],[-79.510841,36.5402],[-80.978661,36.562108],[-81.679709,36.589492],[-83.673316,36.600446],[-83.070852,36.852385],[-82.720328,37.044078],[-82.353373,37.268633],[-81.969987,37.537003],[-81.55374,37.208387],[-80.967707,37.290541],[-80.29952,37.509618],[-79.998289,37.997066],[-79.647764,38.594052],[-79.209609,38.495467],[-78.870039,38.763838],[-78.349729,39.464886]]]}},
{"type":"Feature","id":"53","properties":{"name":"Washington","density":102.6},"geometry":{"type":"Polygon","coordinates":[[[-117.033359,49.000239],[-117.038836,46.426077],[-116.918344,45.993399],[-118.988627,45.998876],[-119.963522,45.823614],[-120.637186,45.746937],[-121.535404,45.725029],[-122.247407,45.549767],[-122.811531,45.960537],[-123.211348,46.174138],[-123.545441,46.261769],[-124.065751,46.327492],[-124.235536,47.285957],[-124.427229,47.740543],[-124.706553,48.184175],[-124.394367,48.288237],[-123.704273,48.167744],[-123.036086,48.080113],[-122.515777,47.882943],[-122.324084,47.346203],[-122.422669,47.576235],[-122.230976,48.030821],[-122.647223,48.775685],[-122.756762,49.000239],[-117.033359,49.000239]]]}},
{"type":"Feature","id":"54","properties":{"name":"West Virginia","density":77.06},"geometry":{"type":"Polygon","coordinates":[[[-80.518598,40.636951],[-80.518598,39.722302],[-79.477979,39.722302],[-79.094593,39.470363],[-78.765977,39.585379],[-78.431884,39.623717],[-78.004682,39.601809],[-77.719881,39.322485],[-78.349729,39.464886],[-78.870039,38.763838],[-79.209609,38.495467],[-79.647764,38.594052],[-79.998289,37.997066],[-80.29952,37.509618],[-80.967707,37.290541],[-81.55374,37.208387],[-81.969987,37.537003],[-82.101434,37.553434],[-82.50125,37.931343],[-82.594358,38.424267],[-82.221926,38.785745],[-81.811156,39.0815],[-81.345616,39.344393],[-80.830783,39.711348],[-80.518598,40.636951]]]}},
{"type":"Feature","id":"55","properties":{"name":"Wisconsin","density":105.2},"geometry":{"type":"Polygon","coordinates":[[[-90.415429,46.568478],[-90.119674,46.338446],[-88.531362,46.020784],[-87.989145,45.796229],[-87.885083,45.363551],[-87.589328,45.095181],[-87.819359,44.95278],[-87.928898,44.536533],[-87.611236,44.837764],[-87.03068,45.22115],[-87.238804,45.166381],[-87.540035,44.158624],[-87.791975,43.561637],[-87.885083,43.002989],[-87.802929,42.493634],[-88.788778,42.493634],[-90.639984,42.510065],[-91.056231,43.254929],[-91.269832,43.616407],[-91.592971,44.032654],[-92.233773,44.443425],[-92.808852,44.750133],[-92.644544,45.440228],[-92.869098,45.719552],[-92.354266,46.015307],[-92.29402,46.667063],[-91.09457,46.864232],[-90.55783,46.584908],[-90.415429,46.568478]]]}},
{"type":"Feature","id":"56","properties":{"name":"Wyoming","density":5.851},"geometry":{"type":"Polygon","coordinates":[[[-109.080842,45.002073],[-104.058488,44.996596],[-104.053011,41.003906],[-107.919731,41.003906],[-109.04798,40.998429],[-111.047063,40.998429],[-111.047063,42.000709],[-111.05254,45.002073],[-109.080842,45.002073]]]}}
]}
